NORAD_CAT_ID,OBJECT_NAME,OBJECT_TYPE,EPOCH,MEAN_MOTION,ECCENTRICITY,INCLINATION,RA_OF_ASC_NODE,ARG_OF_PERICENTER,MEAN_ANOMALY,BSTAR,MEAN_MOTION_DOT,MEAN_MOTION_DDOT,TLE_LINE0,TLE_LINE1,TLE_LINE2,SEMIMAJOR_AXIS,PERIOD,APOGEE,PERIGEE,DECAYED
53860.0,STARLINK-4799,PAYLOAD,2023-12-29 22:28:05,15.08842172,0.0002251,53.2167,278.9569,135.4169,224.7004,9.6559e-05,1.249e-05,0.0,0 STARLINK-4799,1 53860U 22114AU  23363.93617475  .00001249  00000-0  96559-4 0  9995,2 53860  53.2167 278.9569 0002251 135.4169 224.7004 15.08842172 71985,6917.874,95.437,541.296,538.182,0.0
53860.0,STARLINK-4799,PAYLOAD,2023-12-30 00:03:28,15.08841997,0.0001654,53.2167,278.6621,107.5602,252.5571,8.5764e-05,1.077e-05,0.0,0 STARLINK-4799,1 53860U 22114AU  23364.00241512  .00001077  00000-0  85764-4 0  9994,2 53860  53.2167 278.6621 0001654 107.5602 252.5571 15.08841997 71699,6917.874,95.437,540.884,538.595,0.0
53860.0,STARLINK-4799,PAYLOAD,2023-12-30 22:18:52,15.08841479,0.0001731,53.2162,274.4957,108.4408,251.6773,3.9857e-05,3.46e-06,0.0,0 STARLINK-4799,1 53860U 22114AU  23364.92977548  .00000346  00000-0  39857-4 0  9990,2 53860  53.2162 274.4957 0001731 108.4408 251.6773 15.08841479 72139,6917.876,95.437,540.938,538.543,0.0
53860.0,STARLINK-4799,PAYLOAD,2023-12-31 01:29:38,15.08843067,0.0001531,53.216,273.9057,91.9814,268.1354,6.4723e-05,7.42e-06,0.0,0 STARLINK-4799,1 53860U 22114AU  23365.06225639  .00000742  00000-0  64723-4 0  9993,2 53860  53.2160 273.9057 0001531  91.9814 268.1354 15.08843067 71858,6917.871,95.437,540.795,538.677,0.0
53860.0,STARLINK-4799,PAYLOAD,2023-12-31 17:23:30,15.08838066,0.0001506,53.2155,270.9352,83.2613,276.855,0.00011264,1.505e-05,0.0,0 STARLINK-4799,1 53860U 22114AU  23365.72466093  .00001505  00000-0  11264-3 0  9996,2 53860  53.2155 270.9352 0001506  83.2613 276.8550 15.08838066 71958,6917.886,95.438,540.793,538.709,0.0
53860.0,STARLINK-4799,PAYLOAD,2023-12-31 22:09:40,15.08834742,0.0001525,53.2155,270.0403,79.3651,280.7513,1.6929e-05,-1.9e-07,0.0,0 STARLINK-4799,1 53860U 22114AU  23365.92338320 -.00000019  00000-0  16929-4 0  9993,2 53860  53.2155 270.0403 0001525  79.3651 280.7513 15.08834742 72282,6917.896,95.438,540.816,538.706,0.0
53860.0,STARLINK-4799,PAYLOAD,2024-01-01 02:55:49,15.0883843,0.000157,53.216,269.1477,83.543,276.5741,6.3387e-05,7.21e-06,0.0,0 STARLINK-4799,1 53860U 22114AU  24001.12210164  .00000721  00000-0  63387-4 0  9997,2 53860  53.2160 269.1477 0001570  83.5430 276.5741 15.08838430 72318,6917.885,95.438,540.836,538.664,0.0
53860.0,STARLINK-4799,PAYLOAD,2024-01-01 22:00:26,15.08846075,0.0001623,53.2162,265.5796,79.6427,280.4748,0.00018535,2.664e-05,0.0,0 STARLINK-4799,1 53860U 22114AU  24001.91697852  .00002664  00000-0  18535-3 0  9999,2 53860  53.2162 265.5796 0001623  79.6427 280.4748 15.08846075 72433,6917.862,95.437,540.85,538.604,0.0
53860.0,STARLINK-4799,PAYLOAD,2024-01-02 01:11:13,15.08850651,0.000176,53.2167,264.9853,75.6967,284.4221,0.00025354,3.75e-05,0.0,0 STARLINK-4799,1 53860U 22114AU  24002.04945670  .00003750  00000-0  25354-3 0  9992,2 53860  53.2167 264.9853 0001760  75.6967 284.4221 15.08850651 72156,6917.848,95.437,540.93,538.495,0.0
53860.0,STARLINK-4799,PAYLOAD,2024-01-02 17:05:04,15.08843307,0.0001496,53.2164,262.01,95.8698,264.2465,0.00010604,1.4e-05,0.0,0 STARLINK-4799,1 53860U 22114AU  24002.71185867  .00001400  00000-0  10604-3 0  9992,2 53860  53.2164 262.0100 0001496  95.8698 264.2465 15.08843307 72255,6917.87,95.437,540.77,538.7,0.0
53860.0,STARLINK-4799,PAYLOAD,2024-01-02 21:51:13,15.08845121,0.0001511,53.2163,261.1184,95.219,264.8975,0.00012663,1.728e-05,0.0,0 STARLINK-4799,1 53860U 22114AU  24002.91057729  .00001728  00000-0  12663-3 0  9999,2 53860  53.2163 261.1184 0001511  95.2190 264.8975 15.08845121 72589,6917.865,95.437,540.775,538.684,0.0
53860.0,STARLINK-4799,PAYLOAD,2024-01-03 02:37:23,15.08846832,0.0001502,53.2163,260.2262,96.4505,263.6659,0.00014442,2.012e-05,0.0,0 STARLINK-4799,1 53860U 22114AU  24003.10929608  .00002012  00000-0  14442-3 0  9999,2 53860  53.2163 260.2262 0001502  96.4505 263.6659 15.08846832 72619,6917.86,95.437,540.764,538.685,0.0
53860.0,STARLINK-4799,PAYLOAD,2024-01-03 20:06:38,15.08834367,0.0001644,53.2159,256.9549,113.144,246.9725,0.00013867,1.919e-05,0.0,0 STARLINK-4799,1 53860U 22114AU  24003.83794082  .00001919  00000-0  13867-3 0  9990,2 53860  53.2159 256.9549 0001644 113.1440 246.9725 15.08834367 72423,6917.898,95.438,540.9,538.625,0.0
53860.0,STARLINK-4799,PAYLOAD,2024-01-03 21:42:01,15.08834331,0.0001639,53.2159,256.6577,110.1953,249.9215,0.00016954,2.411e-05,0.0,0 STARLINK-4799,1 53860U 22114AU  24003.90418127  .00002411  00000-0  16954-3 0  9999,2 53860  53.2159 256.6577 0001639 110.1953 249.9215 15.08834331 72733,6917.898,95.438,540.897,538.629,0.0
53860.0,STARLINK-4799,PAYLOAD,2024-01-04 02:28:10,15.0884823,0.0001485,53.2166,255.765,107.9355,252.1799,-1.9614e-05,-6e-06,0.0,0 STARLINK-4799,1 53860U 22114AU  24004.10289534 -.00000600  00000-0 -19614-4 0  9997,2 53860  53.2166 255.7650 0001485 107.9355 252.1799 15.08848230 72468,6917.855,95.437,540.748,538.693,0.0
53860.0,STARLINK-4799,PAYLOAD,2024-01-04 19:57:25,15.08837184,0.000158,53.2165,252.4933,106.2172,253.8994,1.7083e-05,-1.6e-07,0.0,0 STARLINK-4799,1 53860U 22114AU  24004.83154175 -.00000016  00000-0  17083-4 0  9997,2 53860  53.2165 252.4933 0001580 106.2172 253.8994 15.08837184 72573,6917.889,95.438,540.847,538.661,0.0
53860.0,STARLINK-4799,PAYLOAD,2024-01-04 21:32:48,15.08838029,0.0001582,53.2167,252.1961,103.2201,256.8968,1.7007e-05,-1.7e-07,0.0,0 STARLINK-4799,1 53860U 22114AU  24004.89778117 -.00000017  00000-0  17007-4 0  9998,2 53860  53.2167 252.1961 0001582 103.2201 256.8968 15.08838029 72882,6917.886,95.438,540.846,538.657,0.0
53860.0,STARLINK-4799,PAYLOAD,2024-01-05 02:18:57,15.08838244,0.0001583,53.2166,251.3041,102.8557,257.2612,1.3298e-05,-7.6e-07,0.0,0 STARLINK-4799,1 53860U 22114AU  24005.09650096 -.00000076  00000-0  13298-4 0  9999,2 53860  53.2166 251.3041 0001583 102.8557 257.2612 15.08838244 72915,6917.886,95.438,540.846,538.656,0.0
53860.0,STARLINK-4799,PAYLOAD,2024-01-05 21:23:35,15.0883825,0.0001548,53.2162,247.7354,101.4339,258.6827,6.7608e-05,7.88e-06,0.0,0 STARLINK-4799,1 53860U 22114AU  24005.89138147  .00000788  00000-0  67608-4 0  9998,2 53860  53.2162 247.7354 0001548 101.4339 258.6827 15.08838250 73035,6917.886,95.438,540.822,538.68,0.0
53860.0,STARLINK-4799,PAYLOAD,2024-01-05 22:58:58,15.08838828,0.0001524,53.2163,247.4381,98.404,261.7125,6.9289e-05,8.15e-06,0.0,0 STARLINK-4799,1 53860U 22114AU  24005.95762126  .00000815  00000-0  69289-4 0  9993,2 53860  53.2163 247.4381 0001524  98.4040 261.7125 15.08838828 72745,6917.884,95.438,540.803,538.695,0.0
53860.0,STARLINK-4799,PAYLOAD,2024-01-06 21:14:22,15.08836698,0.00015,53.216,243.2764,97.5133,262.603,5.0956e-05,5.23e-06,0.0,0 STARLINK-4799,1 53860U 22114AU  24006.88498529  .00000523  00000-0  50956-4 0  9996,2 53860  53.2160 243.2764 0001500  97.5133 262.6030 15.08836698 73185,6917.89,95.438,540.793,538.718,0.0
53860.0,STARLINK-4799,PAYLOAD,2024-01-07 02:00:32,15.08837146,0.0001484,53.2159,242.3844,95.6142,264.5019,4.9447e-05,4.99e-06,0.0,0 STARLINK-4799,1 53860U 22114AU  24007.08370545  .00000499  00000-0  49447-4 0  9991,2 53860  53.2159 242.3844 0001484  95.6142 264.5019 15.08837146 72919,6917.889,95.438,540.781,538.727,0.0
53860.0,STARLINK-4799,PAYLOAD,2024-01-07 22:40:32,15.08840504,0.0001473,53.216,238.5185,88.6288,271.4873,6.0577e-05,6.76e-06,0.0,0 STARLINK-4799,1 53860U 22114AU  24007.94482542  .00000676  00000-0  60577-4 0  9991,2 53860  53.2160 238.5185 0001473  88.6288 271.4873 15.08840504 73342,6917.879,95.438,540.763,538.725,0.0
53860.0,STARLINK-4799,PAYLOAD,2024-01-08 01:51:20,15.08800423,0.0001723,53.216,237.9237,91.2114,268.9076,0.00063954,9.894e-05,0.0,0 STARLINK-4799,1 53860U 22114AU  24008.07731572  .00009894  00000-0  63954-3 0  9998,2 53860  53.2160 237.9237 0001723  91.2114 268.9076 15.08800423 73060,6918.001,95.44,541.058,538.674,0.0
53860.0,STARLINK-4799,PAYLOAD,2024-01-08 19:20:33,15.08838952,0.0001471,53.2159,234.6521,85.4355,274.6806,4.916e-05,4.94e-06,0.0,0 STARLINK-4799,1 53860U 22114AU  24008.80594780  .00000494  00000-0  49160-4 0  9998,2 53860  53.2159 234.6521 0001471  85.4355 274.6806 15.08838952 73175,6917.884,95.438,540.766,538.731,0.0
53860.0,STARLINK-4799,PAYLOAD,2024-01-08 22:31:20,15.08841358,0.0001618,53.2162,234.0566,98.7599,261.3576,5.0199e-05,5.11e-06,0.0,0 STARLINK-4799,1 53860U 22114AU  24008.93842613  .00000511  00000-0  50199-4 0  9997,2 53860  53.2162 234.0566 0001618  98.7599 261.3576 15.08841358 73498,6917.876,95.437,540.861,538.622,0.0
53860.0,STARLINK-4799,PAYLOAD,2024-01-09 00:06:43,15.08842454,0.0001486,53.216,233.7593,87.0177,273.0985,6.2913e-05,7.13e-06,0.0,0 STARLINK-4799,1 53860U 22114AU  24009.00466544  .00000713  00000-0  62913-4 0  9992,2 53860  53.2160 233.7593 0001486  87.0177 273.0985 15.08842454 73502,6917.873,95.437,540.766,538.71,0.0
53860.0,STARLINK-4799,PAYLOAD,2024-01-09 22:22:06,15.08844909,0.0001601,53.2165,229.5963,78.7065,281.4107,7.5129e-05,9.08e-06,0.0,0 STARLINK-4799,1 53860U 22114AU  24009.93202395  .00000908  00000-0  75129-4 0  9995,2 53860  53.2165 229.5963 0001601  78.7065 281.4107 15.08844909 73644,6917.865,95.437,540.838,538.623,0.0
53860.0,STARLINK-4799,PAYLOAD,2024-01-09 23:57:29,15.08846667,0.0001564,53.2163,229.2988,81.2014,278.9156,8.8202e-05,1.116e-05,0.0,0 STARLINK-4799,1 53860U 22114AU  24009.99826206  .00001116  00000-0  88202-4 0  9992,2 53860  53.2163 229.2988 0001564  81.2014 278.9156 15.08846667 73353,6917.86,95.437,540.807,538.643,0.0
53860.0,STARLINK-4799,PAYLOAD,2024-01-10 19:02:10,15.08816979,0.0001431,53.2154,225.7344,81.5629,278.5525,-0.00013759,-2.476e-05,0.0,0 STARLINK-4799,1 53860U 22114AU  24010.79317571 -.00002476  00000-0 -13759-3 0  9998,2 53860  53.2154 225.7344 0001431  81.5629 278.5525 15.08816979 73470,6917.951,95.439,540.806,538.826,0.0
